     2.11           N: GPS NAV DATA                         RINEX VERSION / TYPE
teqc  2018Dec12     gpsops              20220220 01:04:06UTCPGM / RUN BY / DATE
Linux 2.6.32-573.12.1.x86_64|x86_64|gcc -static|Linux 64|=+ COMMENT
CHPI                                    MARKER NAME         COMMENT
41609M003                               MARKER NUMBER       COMMENT
4164613.9484 -4162456.9866 -2445028.7316                    COMMENT
                                                            COMMENT
This data is provided as a public service by NASA/JPL.      COMMENT
No warranty is expressed or implied regarding suitability   COMMENT
for use.  For further information, contact:                 COMMENT
Dave Stowers, NASA/JPL m/s 238-600                          COMMENT
4800 Oak Grove Drive, Pasadena CA 91109 USA                 COMMENT
                                                            END OF HEADER
 6 22  2 19  4  0  0.0 2.060630358756D-04 1.205080479849D-11 0.000000000000D+00
    7.300000000000D+01 1.025937500000D+02 4.094813422558D-09-2.727963145038D+00
    5.384907126427D-06 2.699778648093D-03 8.860602974892D-06 5.153673101425D+03
    5.328000000000D+05 1.862645149231D-09-1.921899334182D+00 5.401670932770D-08
    9.861538613581D-01 2.223437500000D+02-9.537886772411D-01-7.858898783251D-09
    4.893060958486D-10 1.000000000000D+00 2.197000000000D+03 0.000000000000D+00
    2.000000000000D+00 0.000000000000D+00 3.725290298462D-09 7.300000000000D+01
    5.284380000000D+05 4.000000000000D+00
 1 22  2 19  4  0  0.0 4.279250279069D-04-9.436007530894D-12 0.000000000000D+00
    8.700000000000D+01 1.050625000000D+02 3.978022843476D-09-3.051336328109D+00
    5.217269062996D-06 1.139602647163D-02 8.512288331985D-06 5.153669805527D+03
    5.328000000000D+05 3.352761268616D-08-1.913626991800D+00-1.527369022369D-07
    9.867761720798D-01 2.279375000000D+02 8.813808213004D-01-7.711392639028D-09
    4.625192657839D-10 1.000000000000D+00 2.197000000000D+03 0.000000000000D+00
    2.000000000000D+00 0.000000000000D+00 5.122274160385D-09 8.700000000000D+01
    5.293980000000D+05 4.000000000000D+00
 5 22  2 19  3 59 44.0-7.193163037300D-05-1.364242052659D-12 0.000000000000D+00
    8.000000000000D+00-2.459375000000D+01 5.086283292686D-09-4.001318115075D-01
   -1.206994056702D-06 5.871784989722D-03 2.454966306686D-06 5.153663898468D+03
    5.327840000000D+05-7.264316082001D-08-9.185829348492D-01 6.146728992462D-08
    9.594334022409D-01 3.285937500000D+02 1.008797654940D+00-8.723220500005D-09
   -1.878649681871D-10 1.000000000000D+00 2.197000000000D+03 0.000000000000D+00
    2.000000000000D+00 0.000000000000D+00-1.117587089539D-08 8.000000000000D+00
    5.307960000000D+05 4.000000000000D+00
12 22  2 19  3 59 44.0-1.731701195240D-04-5.684341886081D-12 0.000000000000D+00
    8.000000000000D+00-2.346875000000D+01 4.662694219930D-09 1.908700299177D+00
   -1.346692442894D-06 8.691940805875D-03 4.457309842110D-06 5.153592311859D+03
    5.327840000000D+05-1.676380634308D-08 2.334811429171D+00-1.695007085800D-07
    9.700690902428D-01 2.981250000000D+02 1.247349175660D+00-8.249986502195D-09
   -1.350056235261D-10 1.000000000000D+00 2.197000000000D+03 0.000000000000D+00
    2.000000000000D+00 0.000000000000D+00-1.257285475731D-08 8.000000000000D+00
    5.309460000000D+05 4.000000000000D+00
24 22  2 19  4  0  0.0 2.737445756793D-04-2.160049916711D-12 0.000000000000D+00
    1.900000000000D+01 5.428125000000D+01 4.909847371994D-09-2.755892587451D+00
    2.782791852951D-06 1.235088799149D-02 9.903684258461D-06 5.153698848724D+03
    5.328000000000D+05 7.636845111847D-08 1.138824275917D+00-1.564621925354D-07
    9.343512372851D-01 1.732187500000D+02 8.079669795021D-01-8.089979837276D-09
    5.732381633847D-10 1.000000000000D+00 2.197000000000D+03 0.000000000000D+00
    2.000000000000D+00 0.000000000000D+00 2.328306436539D-09 1.900000000000D+01
    5.313660000000D+05 4.000000000000D+00
11 22  2 19  4  0  0.0-8.443417027593D-05 1.182343112305D-11 0.000000000000D+00
    9.300000000000D+01 9.546875000000D+01 4.640907598144D-09-9.373634090170D-01
    5.109235644341D-06 2.686942461878D-04 8.195638656616D-06 5.153775424957D+03
    5.328000000000D+05 6.146728992462D-08-1.869936232384D+00 4.284083843231D-08
    9.618647574594D-01 2.224062500000D+02 2.872093434448D+00-8.247129240322D-09
    4.643050544549D-10 1.000000000000D+00 2.197000000000D+03 0.000000000000D+00
    6.400000000000D+01 6.300000000000D+01-8.847564458847D-09 9.300000000000D+01
    5.325180000000D+05 4.000000000000D+00
17 22  2 19  6  0  0.0 5.770088173449D-04 5.002220859751D-12 0.000000000000D+00
    8.800000000000D+01-1.525000000000D+01 3.998380834325D-09 1.678705298528D-01
   -1.020729541779D-06 1.358208386227D-02 1.182965934277D-05 5.153762063980D+03
    5.400000000000D+05-1.564621925354D-07-2.911293961388D+00-5.029141902924D-08
    9.801460357023D-01 1.629375000000D+02-1.497667380978D+00-7.961045895231D-09
   -2.839403986859D-10 1.000000000000D+00 2.197000000000D+03 0.000000000000D+00
    2.800000000000D+00 0.000000000000D+00-1.117587089539D-08 8.800000000000D+01
    5.328180000000D+05 4.000000000000D+00
19 22  2 19  6  0  0.0 1.208507455885D-04 5.002220859751D-12 0.000000000000D+00
    5.800000000000D+01-1.153125000000D+01 3.882304570711D-09 2.581794680123D+00
   -7.562339305878D-07 8.982661180198D-03 1.258775591850D-05 5.153691080093D+03
    5.400000000000D+05 1.899898052216D-07-2.866441337804D+00 2.048909664154D-08
    9.789028581590D-01 1.428437500000D+02 2.008840797014D+00-7.579601435109D-09
   -3.110843864848D-10 1.000000000000D+00 2.197000000000D+03 0.000000000000D+00
    2.000000000000D+00 0.000000000000D+00-1.583248376846D-08 5.800000000000D+01
    5.328180000000D+05 4.000000000000D+00
13 22  2 19  6  0  0.0 2.640946768224D-04 6.252776074689D-12 0.000000000000D+00
    8.500000000000D+01-6.400000000000D+01 4.142672558940D-09-3.046044590612D-01
   -3.308057785034D-06 5.807391717099D-03 1.237168908119D-05 5.153683322906D+03
    5.400000000000D+05 1.490116119385D-08 3.028149913341D-01 5.774199962616D-08
    9.690534637550D-01 1.418125000000D+02 9.557639297126D-01-7.949616847736D-09
   -2.767972440020D-10 1.000000000000D+00 2.197000000000D+03 0.000000000000D+00
    2.000000000000D+00 0.000000000000D+00-1.117587089539D-08 8.500000000000D+01
    5.328180000000D+05 4.000000000000D+00
28 22  2 19  5 59 44.0 3.973427228630D-04-8.299139153678D-12 0.000000000000D+00
    3.100000000000D+01-2.900000000000D+01 4.860916762409D-09 6.567810903230D-01
   -1.676380634308D-06 1.681399240624D-02 4.766508936882D-06 5.153687187195D+03
    5.399840000000D+05-1.713633537292D-07 2.356831526647D+00-2.067536115646D-07
    9.691734215746D-01 2.942187500000D+02-1.287748701479D+00-8.628930858177D-09
   -2.350097891010D-10 1.000000000000D+00 2.197000000000D+03 0.000000000000D+00
    2.000000000000D+00 6.300000000000D+01-1.117587089539D-08 3.100000000000D+01
    5.328180000000D+05 4.000000000000D+00
15 22  2 19  6  0  0.0-8.271774277091D-05 2.955857780762D-12 0.000000000000D+00
    7.200000000000D+01-9.200000000000D+01 5.226646282226D-09-7.353284213803D-01
   -4.699453711510D-06 1.393921719864D-02 1.005828380585D-05 5.153745672226D+03
    5.400000000000D+05-3.166496753693D-08 4.389300052537D-02 2.458691596985D-07
    9.304418300998D-01 1.684062500000D+02 1.075433743149D+00-8.646074429419D-09
   -4.571618997710D-10 1.000000000000D+00 2.197000000000D+03 0.000000000000D+00
    2.000000000000D+00 0.000000000000D+00-1.071020960808D-08 7.200000000000D+01
    5.328180000000D+05 4.000000000000D+00
14 22  2 19  5 59 44.0-8.556991815567D-05-4.433786671143D-12 0.000000000000D+00
    1.830000000000D+02-2.290625000000D+01 5.094855078307D-09 3.017679143020D+00
   -1.031905412674D-06 1.445443718694D-03 4.056841135025D-06 5.153640821457D+03
    5.399840000000D+05-4.656612873077D-08 2.303390769334D+00-2.793967723846D-08
    9.534585668507D-01 2.953437500000D+02 3.023902089317D+00-8.488210710904D-09
   -1.228622605635D-10 1.000000000000D+00 2.197000000000D+03 0.000000000000D+00
    2.000000000000D+00 0.000000000000D+00-7.450580596924D-09 1.830000000000D+02
    5.328180000000D+05 4.000000000000D+00
30 22  2 19  6  0  0.0-5.142530426383D-04-2.273736754432D-12 0.000000000000D+00
    7.700000000000D+01 7.490625000000D+01 4.993779439530D-09-2.631918159510D+00
    3.730878233910D-06 5.514092510566D-03 9.324401617050D-06 5.153580272675D+03
    5.400000000000D+05-1.117587089539D-08 1.234673092907D+00 2.607703208923D-08
    9.359623987051D-01 1.875937500000D+02-2.743537900486D+00-8.251415133132D-09
    5.514515415988D-10 1.000000000000D+00 2.197000000000D+03 0.000000000000D+00
    2.000000000000D+00 0.000000000000D+00 3.725290298462D-09 7.700000000000D+01
    5.328180000000D+05 4.000000000000D+00
 6 22  2 19  6  0  0.0 2.061496488750D-04 1.205080479849D-11 0.000000000000D+00
    7.400000000000D+01 1.037500000000D+02 4.064812172886D-09-1.677626076066D+00
    5.386769771576D-06 2.699567936361D-03 8.849427103996D-06 5.153673971176D+03
    5.400000000000D+05-4.842877388000D-08-1.921956076385D+00 3.539025783539D-08
    9.861571865709D-01 2.259375000000D+02-9.539477491014D-01-7.904257815494D-09
    4.935919886590D-10 1.000000000000D+00 2.197000000000D+03 0.000000000000D+00
    2.000000000000D+00 0.000000000000D+00 3.725290298462D-09 7.400000000000D+01
    5.328180000000D+05 4.000000000000D+00
 5 22  2 19  5 59 44.0-7.194094359875D-05-1.364242052659D-12 0.000000000000D+00
    1.000000000000D+01-2.575000000000D+01 5.167715256083D-09 6.500686165272D-01
   -1.084059476852D-06 5.871537607163D-03 2.572312951088D-06 5.153663415909D+03
    5.399840000000D+05-4.842877388000D-08-9.186459383421D-01 3.911554813385D-08
    9.594320826887D-01 3.299687500000D+02 1.008788674086D+00-8.740364071247D-09
   -1.732215010851D-10 1.000000000000D+00 2.197000000000D+03 0.000000000000D+00
    2.000000000000D+00 0.000000000000D+00-1.117587089539D-08 1.000000000000D+01
    5.328180000000D+05 4.000000000000D+00
